#aV2006 10 27  0  0   .00000000      96 DD+AD WGS84 FIT  NGA
## 1398 432000.00000000   900.00000000 54035  .0000000000000
+   30     1  2  3  4  5  6  7  8  9 10 11 13 14 15 16 17 18
+         19 20 21 22 23 24 25 26 27 28 29 30 31  0  0  0  0
+          0  0  0  0  0  0  0  0  0  0  0  0  0  0  0  0  0
+          0  0  0  0  0  0  0  0  0  0  0  0  0  0  0  0  0
+          0  0  0  0  0  0  0  0  0  0  0  0  0  0  0  0  0
++         0  0  0  0  0  0  0  0  0  0  0  0  0  0  0  0  0
++         0  0  0  0  0  0  0  0  0  0  0  0  0  0  0  0  0
++         0  0  0  0  0  0  0  0  0  0  0  0  0  0  0  0  0
++         0  0  0  0  0  0  0  0  0  0  0  0  0  0  0  0  0
++         0  0  0  0  0  0  0  0  0  0  0  0  0  0  0  0  0
%c cc cc ccc ccc cccc cccc cccc cccc ccccc ccccc ccccc ccccc
%c cc cc ccc ccc cccc cccc cccc cccc ccccc ccccc ccccc ccccc
%f  0.0000000  0.000000000  0.00000000000  0.000000000000000
%f  0.0000000  0.000000000  0.00000000000  0.000000000000000
%i    0    0    0    0      0      0      0      0         0
%i    0    0    0    0      0      0      0      0         0
/*      NGA, ST. LOUIS,MO.                                  
/*   EPHEMERIS COMPUTED FROM  3 DAYS OF DATA                
/* CCCCCCCCCCCCCCCCCCCCCCCCCCCCCCCCCCCCCCCCCCCCCCCCCCCCCCCCC
/* CCCCCCCCCCCCCCCCCCCCCCCCCCCCCCCCCCCCCCCCCCCCCCCCCCCCCCCCC
*  2006 10 27 15 15   .00000000                                                 
P  1  15021.426758 -20363.473144  -7756.243293     85.163750                    
V  1  -2531.532619   9973.444811 -30361.178278       .023762                    
P  2 -18059.260837  12824.365826  14245.821766     48.879466                    
V  2 -18804.759449    -34.994781 -23649.904583       .036843                    
P  3  11034.999102 -23402.759553   4994.858903    342.783010                    
V  3   1982.612156   7572.927537  30295.286166       .369937                    
P  4 -25989.537455   5442.731796   3242.843611    329.315728                    
V  4  -4449.363226  -2370.670456 -30886.416247       .046904                    
P  5  11055.033039  22385.514738  -9517.012824    364.577091                    
V  5 -10148.375510  -6645.533934 -27933.191417      -.005084                    
P  6  11076.882464  13331.015006  20300.272005    569.455020                    
V  6  -9960.600154  23477.108863 -10133.314326      -.106099                    
P  7  17299.192421 -10338.502636  17673.571138    506.777169                    
V  7  -5213.774619  21282.080247  17833.187410      -.066606                    
P  8 -26209.088770  -1195.400457   5285.751208    -84.405004                    
V  8   6589.422085  -2572.750852  30856.132853      -.012293                    
P  9   1415.204712  15405.689450 -22157.772075     42.083219                    
V  9 -26410.548066   4385.888157   1640.698939       .015864                    
P 10  -5654.886756  15812.804357  20401.538499     91.822577                    
V 10 -16370.848804 -20450.898246  11563.397995       .006300                    
P 11  -5532.821330 -15699.722412 -20781.887318    357.146787                    
V 11  25392.354554  -7601.315642   -743.774176       .017673                    
P 13 -10101.980510 -11737.651551  21494.842745    107.168315                    
V 13  11548.701171 -24863.714783  -8076.689779       .035334                    
P 14  16762.576822  -6577.527845 -19421.626311     -2.501181                    
V 14  -8844.487293  23172.850928 -15490.799502       .009013                    
P 15  26496.514924   1036.645754   3718.154662     18.770283                    
V 15  -4665.056728   2888.742256  30885.665289       .522394                    
P 16   8542.989480 -13373.946757  21356.749328     86.050981                    
V 16  16739.705307  21134.633521   6679.286431       .035945                    
P 17 -17146.741701   6082.289860 -19319.902822     91.574428                    
V 17   8132.261972 -23209.705065 -14633.681864      -.011299                    
P 18  19185.519293  16273.937829  -8883.306785   -251.676694                    
V 18   4525.936613  10723.736685  28681.988524      -.005990                    
P 19   7306.819500 -24750.045995  -6001.441608     28.338572                    
V 19   5975.660097  -5738.569352  30511.309241       .036711                    
P 20 -12780.891707 -22629.818766  -5644.696869    -21.939120                    
V 20   6613.243930   3768.848081 -30523.794421       .000798                    
P 21  23481.527806   6084.616150  11522.778856     58.941076                    
V 21 -14024.906703   3872.306985  26195.900667       .015723                    
P 22  18708.843440   4256.641798 -18212.930557    145.023598                    
V 22  12028.386818  20227.122252  16908.130438       .029998                    
P 23  -2847.859130 -21186.762267  15552.772715    139.374235                    
V 23   9350.495007 -17740.207159 -22518.438411       .005739                    
P 24 -24488.907407   7550.774027   7809.836711     47.512852                    
V 24  -9715.415993  -1608.005849 -29418.649589       .030973                    
P 25  22465.465502 -11592.839094   8791.931048    393.443791                    
V 25  10870.258033     51.827295 -28884.432416       .102875                    
P 26  -6882.653372  24754.616764  -5793.696123   -310.842678                    
V 26  -4813.816935   5434.866574  31671.899798      -.158416                    
P 27 -21326.900287  -6615.363719  15223.588539     74.984583                    
V 27  17462.092266  -5167.606920  22871.645742       .019807                    
P 28 -19751.745229  -8333.206703 -15605.165244     15.607805                    
V 28 -10560.745837 -17343.005754  21859.432353      -.007942                    
P 29  -9515.188545  24598.678296   -603.484521    127.399995                    
V 29  -2448.381288    140.148648  32546.698018       .503754                    
P 30  18238.548799  19204.571012   2391.971385     14.546167                    
V 30   -311.462841   4678.013230 -31129.126102       .012313                    
P 31  24012.102467  -8698.580035   7551.916982    -61.781837                    
V 31   9602.192994   1308.210534 -29736.666071       .120460                    
EOF
